{"type": "FeatureCollection", "features": [ {"type": "Feature", "properties": {"norad_id": 30411, "name": "FENGYUN 1C DEB", "group": "fengyun-1c-debris", "lat": -78.58055607460477, "lon": 35.822924543518866, "alt_km": 963.677185018897, "timestamp": "2025-12-19T22:41:52.668524+00:00", "meta": {"OBJECT_NAME": "FENGYUN 1C DEB", "OBJECT_ID": "1999-025AEA", "EPOCH": "2025-12-18T16:27:43.643520", "MEAN_MOTION": 14.07679607, "ECCENTRICITY": 0.01231821, "INCLINATION": 98.5812, "RA_OF_ASC_NODE": 263.0036, "ARG_OF_PERICENTER": 89.8726, "MEAN_ANOMALY": 271.6559, "EPHEMERIS_TYPE": 0, "CLASSIFICATION_TYPE": "U", "NORAD_CAT_ID": 30411, "ELEMENT_SET_NO": 999, "REV_AT_EPOCH": 96067, "BSTAR": 0.0014979791, "MEAN_MOTION_DOT": 2.674e-05, "MEAN_MOTION_DDOT": 0}, "tle": {"line1": "1 30411U 99025AEA 25352.68592180  .00002674  00000+0  14980-2 0  9992", "line2": "2 30411  98.5812 263.0036 0123182  89.8726 271.6559 14.07679607960671"}}, "geometry": {"type": "Point", "coordinates": [35.822924543518866, -78.58055607460477]}}, {"type": "Feature", "properties": {"norad_id": 30413, "name": "FENGYUN 1C DEB", "group": "fengyun-1c-debris", "lat": -42.63831632905393, "lon": 38.2707795494659, "alt_km": 760.7672645828216, "timestamp": "2025-12-19T22:41:52.668545+00:00", "meta": {"OBJECT_NAME": "FENGYUN 1C DEB", "OBJECT_ID": "1999-025AEC", "EPOCH": "2025-12-19T15:05:05.384256", "MEAN_MOTION": 14.3260451, "ECCENTRICITY": 0.0044659, "INCLINATION": 102.0629, "RA_OF_ASC_NODE": 229.1868, "ARG_OF_PERICENTER": 198.3719, "MEAN_ANOMALY": 189.9858, "EPHEMERIS_TYPE": 0, "CLASSIFICATION_TYPE": "U", "NORAD_CAT_ID": 30413, "ELEMENT_SET_NO": 999, "REV_AT_EPOCH": 97238, "BSTAR": 0.0014476, "MEAN_MOTION_DOT": 3.903e-05, "MEAN_MOTION_DDOT": 0}, "tle": {"line1": "1 30413U 99025AEC 25353.62853454  .00003903  00000+0  14476-2 0  9999", "line2": "2 30413 102.0629 229.1868 0044659 198.3719 189.9858 14.32604510972388"}}, "geometry": {"type": "Point", "coordinates": [38.2707795494659, -42.63831632905393]}}, {"type": "Feature", "properties": {"norad_id": 30414, "name": "FENGYUN 1C DEB", "group": "fengyun-1c-debris", "lat": -8.483357811230817, "lon": 152.9234851795946, "alt_km": 823.0764265388689, "timestamp": "2025-12-19T22:41:52.668568+00:00", "meta": {"OBJECT_NAME": "FENGYUN 1C DEB", "OBJECT_ID": "1999-025AED", "EPOCH": "2025-12-19T09:20:38.052384", "MEAN_MOTION": 14.34242786, "ECCENTRICITY": 0.0058166, "INCLINATION": 99.08, "RA_OF_ASC_NODE": 150.9726, "ARG_OF_PERICENTER": 169.6887, "MEAN_ANOMALY": 190.5504, "EPHEMERIS_TYPE": 0, "CLASSIFICATION_TYPE": "U", "NORAD_CAT_ID": 30414, "ELEMENT_SET_NO": 999, "REV_AT_EPOCH": 97182, "BSTAR": 0.0017008, "MEAN_MOTION_DOT": 4.818e-05, "MEAN_MOTION_DDOT": 0}, "tle": {"line1": "1 30414U 99025AED 25353.38932931  .00004818  00000+0  17008-2 0  9991", "line2": "2 30414  99.0800 150.9726 0058166 169.6887 190.5504 14.34242786971823"}}, "geometry": {"type": "Point", "coordinates": [152.9234851795946, -8.483357811230817]}}, {"type": "Feature", "properties": {"norad_id": 30415, "name": "FENGYUN 1C DEB", "group": "fengyun-1c-debris", "lat": -2.071627080888075, "lon": -126.15065695423242, "alt_km": 938.8417812483704, "timestamp": "2025-12-19T22:41:52.668592+00:00", "meta": {"OBJECT_NAME": "FENGYUN 1C DEB", "OBJECT_ID": "1999-025AEE", "EPOCH": "2025-12-19T10:11:45.140064", "MEAN_MOTION": 13.68954565, "ECCENTRICITY": 0.023966, "INCLINATION": 99.6456, "RA_OF_ASC_NODE": 53.6804, "ARG_OF_PERICENTER": 252.151, "MEAN_ANOMALY": 246.4978, "EPHEMERIS_TYPE": 0, "CLASSIFICATION_TYPE": "U", "NORAD_CAT_ID": 30415, "ELEMENT_SET_NO": 999, "REV_AT_EPOCH": 93969, "BSTAR": 0.0011757, "MEAN_MOTION_DOT": 1.194e-05, "MEAN_MOTION_DDOT": 0}, "tle": {"line1": "1 30415U 99025AEE 25353.42482801  .00001194  00000+0  11757-2 0  9992", "line2": "2 30415  99.6456  53.6804 0239660 252.1510 246.4978 13.68954565939690"}}, "geometry": {"type": "Point", "coordinates": [-126.15065695423242, -2.071627080888075]}}, {"type": "Feature", "properties": {"norad_id": 30416, "name": "FENGYUN 1C DEB", "group": "fengyun-1c-debris", "lat": 80.78510633874855, "lon": -88.38272221502837, "alt_km": 868.0620153412201, "timestamp": "2025-12-19T22:41:52.668617+00:00", "meta": {"OBJECT_NAME": "FENGYUN 1C DEB", "OBJECT_ID": "1999-025AEF", "EPOCH": "2025-12-18T23:59:58.237440", "MEAN_MOTION": 14.02639207, "ECCENTRICITY": 0.0055707, "INCLINATION": 98.8351, "RA_OF_ASC_NODE": 17.222, "ARG_OF_PERICENTER": 172.4754, "MEAN_ANOMALY": 187.7261, "EPHEMERIS_TYPE": 0, "CLASSIFICATION_TYPE": "U", "NORAD_CAT_ID": 30416, "ELEMENT_SET_NO": 999, "REV_AT_EPOCH": 96712, "BSTAR": 0.00045696266, "MEAN_MOTION_DOT": 6.72e-06, "MEAN_MOTION_DDOT": 0}, "tle": {"line1": "1 30416U 99025AEF 25352.99997960  .00000672  00000+0  45696-3 0  9991", "line2": "2 30416  98.8351  17.2220 0055707 172.4754 187.7261 14.02639207967129"}}, "geometry": {"type": "Point", "coordinates": [-88.38272221502837, 80.78510633874855]}}, {"type": "Feature", "properties": {"norad_id": 30417, "name": "FENGYUN 1C DEB", "group": "fengyun-1c-debris", "lat": -78.48443955742205, "lon": 115.06630230424499, "alt_km": 895.2886248470722, "timestamp": "2025-12-19T22:41:52.668639+00:00", "meta": {"OBJECT_NAME": "FENGYUN 1C DEB", "OBJECT_ID": "1999-025AEG", "EPOCH": "2025-12-19T18:39:18.251712", "MEAN_MOTION": 14.1467005, "ECCENTRICITY": 0.0064605, "INCLINATION": 98.6932, "RA_OF_ASC_NODE": 343.5759, "ARG_OF_PERICENTER": 100.1519, "MEAN_ANOMALY": 24.6123, "EPHEMERIS_TYPE": 0, "CLASSIFICATION_TYPE": "U", "NORAD_CAT_ID": 30417, "ELEMENT_SET_NO": 999, "REV_AT_EPOCH": 97488, "BSTAR": 0.00020564, "MEAN_MOTION_DOT": 3.61e-06, "MEAN_MOTION_DDOT": 0}, "tle": {"line1": "1 30417U 99025AEG 25353.77729458  .00000361  00000+0  20564-3 0  9996", "line2": "2 30417  98.6932 343.5759 0064605 100.1519  24.6123 14.14670050974880"}}, "geometry": {"type": "Point", "coordinates": [115.06630230424499, -78.48443955742205]}}, {"type": "Feature", "properties": {"norad_id": 30418, "name": "FENGYUN 1C DEB", "group": "fengyun-1c-debris", "lat": 42.536831043508236, "lon": 146.2968136858558, "alt_km": 561.3166263778303, "timestamp": "2025-12-19T22:41:52.668663+00:00", "meta": {"OBJECT_NAME": "FENGYUN 1C DEB", "OBJECT_ID": "1999-025AEH", "EPOCH": "2025-12-19T09:41:54.050784", "MEAN_MOTION": 14.84296777, "ECCENTRICITY": 0.0111109, "INCLINATION": 98.8401, "RA_OF_ASC_NODE": 153.9064, "ARG_OF_PERICENTER": 94.4868, "MEAN_ANOMALY": 297.1562, "EPHEMERIS_TYPE": 0, "CLASSIFICATION_TYPE": "U", "NORAD_CAT_ID": 30418, "ELEMENT_SET_NO": 999, "REV_AT_EPOCH": 691, "BSTAR": 0.00058436, "MEAN_MOTION_DOT": 5.4e-05, "MEAN_MOTION_DDOT": 0}, "tle": {"line1": "1 30418U 99025AEH 25353.40409781  .00005400  00000+0  58436-3 0  9999", "line2": "2 30418  98.8401 153.9064 0111109  94.4868 297.1562 14.84296777  6911"}}, "geometry": {"type": "Point", "coordinates": [146.2968136858558, 42.536831043508236]}}, {"type": "Feature", "properties": {"norad_id": 30419, "name": "FENGYUN 1C DEB", "group": "fengyun-1c-debris", "lat": -51.52757211140341, "lon": 109.20365603933256, "alt_km": 864.4809714451294, "timestamp": "2025-12-19T22:41:52.668683+00:00", "meta": {"OBJECT_NAME": "FENGYUN 1C DEB", "OBJECT_ID": "1999-025AEJ", "EPOCH": "2025-12-18T20:19:07.989600", "MEAN_MOTION": 14.18058704, "ECCENTRICITY": 0.00529085, "INCLINATION": 99.241, "RA_OF_ASC_NODE": 299.8823, "ARG_OF_PERICENTER": 8.0432, "MEAN_ANOMALY": 16.8521, "EPHEMERIS_TYPE": 0, "CLASSIFICATION_TYPE": "U", "NORAD_CAT_ID": 30419, "ELEMENT_SET_NO": 999, "REV_AT_EPOCH": 97435, "BSTAR": 0.00064561155, "MEAN_MOTION_DOT": 1.294e-05, "MEAN_MOTION_DDOT": 0}, "tle": {"line1": "1 30419U 99025AEJ 25352.84662025  .00001294  00000+0  64561-3 0  9992", "line2": "2 30419  99.2410 299.8823 0052908   8.0432  16.8521 14.18058704974355"}}, "geometry": {"type": "Point", "coordinates": [109.20365603933256, -51.52757211140341]}}, {"type": "Feature", "properties": {"norad_id": 30432, "name": "FENGYUN 1C DEB", "group": "fengyun-1c-debris", "lat": 80.82689161545584, "lon": 147.47231215567177, "alt_km": 790.0220550815102, "timestamp": "2025-12-19T22:41:52.668705+00:00", "meta": {"OBJECT_NAME": "FENGYUN 1C DEB", "OBJECT_ID": "1999-025AET", "EPOCH": "2025-12-19T15:36:12.578112", "MEAN_MOTION": 14.40708883, "ECCENTRICITY": 0.0082577, "INCLINATION": 98.8358, "RA_OF_ASC_NODE": 252.7478, "ARG_OF_PERICENTER": 318.4655, "MEAN_ANOMALY": 41.0277, "EPHEMERIS_TYPE": 0, "CLASSIFICATION_TYPE": "U", "NORAD_CAT_ID": 30432, "ELEMENT_SET_NO": 999, "REV_AT_EPOCH": 98834, "BSTAR": 0.0004779, "MEAN_MOTION_DOT": 1.54e-05, "MEAN_MOTION_DDOT": 0}, "tle": {"line1": "1 30432U 99025AET 25353.65014558  .00001540  00000+0  47790-3 0  9998", "line2": "2 30432  98.8358 252.7478 0082577 318.4655  41.0277 14.40708883988347"}}, "geometry": {"type": "Point", "coordinates": [147.47231215567177, 80.82689161545584]}}, {"type": "Feature", "properties": {"norad_id": 30434, "name": "FENGYUN 1C DEB", "group": "fengyun-1c-debris", "lat": 26.239567178795483, "lon": -23.94347420477725, "alt_km": 1013.3245336908494, "timestamp": "2025-12-19T22:41:52.668727+00:00", "meta": {"OBJECT_NAME": "FENGYUN 1C DEB", "OBJECT_ID": "1999-025AEV", "EPOCH": "2025-12-18T22:40:02.912160", "MEAN_MOTION": 13.90656406, "ECCENTRICITY": 0.01209262, "INCLINATION": 98.9995, "RA_OF_ASC_NODE": 339.567, "ARG_OF_PERICENTER": 214.235, "MEAN_ANOMALY": 202.3384, "EPHEMERIS_TYPE": 0, "CLASSIFICATION_TYPE": "U", "NORAD_CAT_ID": 30434, "ELEMENT_SET_NO": 999, "REV_AT_EPOCH": 95793, "BSTAR": 0.00022253665, "MEAN_MOTION_DOT": 2.51e-06, "MEAN_MOTION_DDOT": 0}, "tle": {"line1": "1 30434U 99025AEV 25352.94447815  .00000251  00000+0  22254-3 0  9993", "line2": "2 30434  98.9995 339.5670 0120926 214.2350 202.3384 13.90656406957930"}}, "geometry": {"type": "Point", "coordinates": [-23.94347420477725, 26.239567178795483]}}]}